[{"OBJECT_NAME":"YAOGAN-29","OBJECT_ID":"2015-069A","EPOCH":"2026-03-28T14:51:28.323648","MEAN_MOTION":14.8301357,"ECCENTRICITY":5.091e-5,"INCLINATION":98.0123,"RA_OF_ASC_NODE":116.0975,"ARG_OF_PERICENTER":0.4025,"MEAN_ANOMALY":359.7188,"EPHEMERIS_TYPE":0,"CLASSIFICATION_TYPE":"U","NORAD_CAT_ID":41038,"ELEMENT_SET_NO":999,"REV_AT_EPOCH":55868,"BSTAR":1.8890434e-5,"MEAN_MOTION_DOT":9.9e-7,"MEAN_MOTION_DDOT":0},{"OBJECT_NAME":"KENT RIDGE 1","OBJECT_ID":"2015-077B","EPOCH":"2026-03-28T08:10:25.541760","MEAN_MOTION":15.22599929,"ECCENTRICITY":0.00085013,"INCLINATION":14.9794,"RA_OF_ASC_NODE":147.0022,"ARG_OF_PERICENTER":178.7748,"MEAN_ANOMALY":181.2596,"EPHEMERIS_TYPE":0,"CLASSIFICATION_TYPE":"U","NORAD_CAT_ID":41167,"ELEMENT_SET_NO":999,"REV_AT_EPOCH":56875,"BSTAR":0.0001734282,"MEAN_MOTION_DOT":4.918e-5,"MEAN_MOTION_DDOT":0},{"OBJECT_NAME":"GAOFEN-4","OBJECT_ID":"2015-083A","EPOCH":"2026-03-28T15:38:25.476864","MEAN_MOTION":1.00270703,"ECCENTRICITY":0.00060796,"INCLINATION":0.3738,"RA_OF_ASC_NODE":82.8927,"ARG_OF_PERICENTER":89.027,"MEAN_ANOMALY":354.4344,"EPHEMERIS_TYPE":0,"CLASSIFICATION_TYPE":"U","NORAD_CAT_ID":41194,"ELEMENT_SET_NO":999,"REV_AT_EPOCH":3772,"BSTAR":0,"MEAN_MOTION_DOT":-3.54e-6,"MEAN_MOTION_DDOT":0},{"OBJECT_NAME":"JASON-3","OBJECT_ID":"2016-002A","EPOCH":"2026-03-28T14:44:34.962720","MEAN_MOTION":12.87627404,"ECCENTRICITY":0.00076396,"INCLINATION":66.0408,"RA_OF_ASC_NODE":295.2343,"ARG_OF_PERICENTER":276.6935,"MEAN_ANOMALY":83.3214,"EPHEMERIS_TYPE":0,"CLASSIFICATION_TYPE":"U","NORAD_CAT_ID":41240,"ELEMENT_SET_NO":999,"REV_AT_EPOCH":47687,"BSTAR":0.00013760524,"MEAN_MOTION_DOT":-2.7e-7,"MEAN_MOTION_DDOT":0},{"OBJECT_NAME":"SENTINEL-3A","OBJECT_ID":"2016-011A","EPOCH":"2026-03-28T13:36:43.740288","MEAN_MOTION":14.2673322,"ECCENTRICITY":0.00011909,"INCLINATION":98.631,"RA_OF_ASC_NODE":156.0871,"ARG_OF_PERICENTER":93.6494,"MEAN_ANOMALY":266.4823,"EPHEMERIS_TYPE":0,"CLASSIFICATION_TYPE":"U","NORAD_CAT_ID":41335,"ELEMENT_SET_NO":999,"REV_AT_EPOCH":52656,"BSTAR":6.4601258e-5,"MEAN_MOTION_DOT":1.13e-6,"MEAN_MOTION_DDOT":0},{"OBJECT_NAME":"ZIYUAN 3-02 (ZY 3-02)","OBJECT_ID":"2016-033A","EPOCH":"2026-03-28T14:49:05.439648","MEAN_MOTION":15.21214974,"ECCENTRICITY":0.00129075,"INCLINATION":97.3874,"RA_OF_ASC_NODE":164.9229,"ARG_OF_PERICENTER":213.2802,"MEAN_ANOMALY":146.7623,"EPHEMERIS_TYPE":0,"CLASSIFICATION_TYPE":"U","NORAD_CAT_ID":41556,"ELEMENT_SET_NO":999,"REV_AT_EPOCH":54573,"BSTAR":0.00033896578,"MEAN_MOTION_DOT":7.513e-5,"MEAN_MOTION_DDOT":0},{"OBJECT_NAME":"CARTOSAT-2C","OBJECT_ID":"2016-040A","EPOCH":"2026-03-28T15:22:25.214304","MEAN_MOTION":15.19253167,"ECCENTRICITY":0.00101317,"INCLINATION":97.4571,"RA_OF_ASC_NODE":148.6905,"ARG_OF_PERICENTER":60.6912,"MEAN_ANOMALY":299.5334,"EPHEMERIS_TYPE":0,"CLASSIFICATION_TYPE":"U","NORAD_CAT_ID":41599,"ELEMENT_SET_NO":999,"REV_AT_EPOCH":54148,"BSTAR":0.00038991155,"MEAN_MOTION_DOT":8.164e-5,"MEAN_MOTION_DDOT":0},{"OBJECT_NAME":"SKYSAT-C1","OBJECT_ID":"2016-040C","EPOCH":"2026-03-28T14:37:28.710048","MEAN_MOTION":15.34893933,"ECCENTRICITY":0.00015648,"INCLINATION":96.967,"RA_OF_ASC_NODE":123.7365,"ARG_OF_PERICENTER":9.828,"MEAN_ANOMALY":350.2994,"EPHEMERIS_TYPE":0,"CLASSIFICATION_TYPE":"U","NORAD_CAT_ID":41601,"ELEMENT_SET_NO":999,"REV_AT_EPOCH":54550,"BSTAR":0.00032006905,"MEAN_MOTION_DOT":0.00010761,"MEAN_MOTION_DDOT":0},{"OBJECT_NAME":"LAPAN-A3","OBJECT_ID":"2016-040E","EPOCH":"2026-03-28T15:13:41.548224","MEAN_MOTION":15.32544511,"ECCENTRICITY":0.0008825,"INCLINATION":97.1488,"RA_OF_ASC_NODE":86.4642,"ARG_OF_PERICENTER":311.9804,"MEAN_ANOMALY":48.0686,"EPHEMERIS_TYPE":0,"CLASSIFICATION_TYPE":"U","NORAD_CAT_ID":41603,"ELEMENT_SET_NO":999,"REV_AT_EPOCH":54247,"BSTAR":0.00013727998,"MEAN_MOTION_DOT":4.243e-5,"MEAN_MOTION_DDOT":0},{"OBJECT_NAME":"GAOFEN-3","OBJECT_ID":"2016-049A","EPOCH":"2026-03-28T14:32:08.050272","MEAN_MOTION":14.42220813,"ECCENTRICITY":0.00016772,"INCLINATION":98.4055,"RA_OF_ASC_NODE":96.5987,"ARG_OF_PERICENTER":75.4324,"MEAN_ANOMALY":284.7052,"EPHEMERIS_TYPE":0,"CLASSIFICATION_TYPE":"U","NORAD_CAT_ID":41727,"ELEMENT_SET_NO":999,"REV_AT_EPOCH":50703,"BSTAR":4.7345863e-5,"MEAN_MOTION_DOT":1.13e-6,"MEAN_MOTION_DDOT":0},{"OBJECT_NAME":"SKYSAT-C4","OBJECT_ID":"2016-058B","EPOCH":"2026-03-28T13:24:53.319744","MEAN_MOTION":15.46033833,"ECCENTRICITY":0.00024902,"INCLINATION":96.9266,"RA_OF_ASC_NODE":112.8186,"ARG_OF_PERICENTER":130.1273,"MEAN_ANOMALY":230.0196,"EPHEMERIS_TYPE":0,"CLASSIFICATION_TYPE":"U","NORAD_CAT_ID":41771,"ELEMENT_SET_NO":999,"REV_AT_EPOCH":53300,"BSTAR":0.00039975154,"MEAN_MOTION_DOT":0.00019463,"MEAN_MOTION_DDOT":0},{"OBJECT_NAME":"SKYSAT-C5","OBJECT_ID":"2016-058C","EPOCH":"2026-03-28T13:05:10.038912","MEAN_MOTION":15.34060277,"ECCENTRICITY":0.00013623,"INCLINATION":97.0583,"RA_OF_ASC_NODE":131.79,"ARG_OF_PERICENTER":197.1298,"MEAN_ANOMALY":162.99,"EPHEMERIS_TYPE":0,"CLASSIFICATION_TYPE":"U","NORAD_CAT_ID":41772,"ELEMENT_SET_NO":999,"REV_AT_EPOCH":53138,"BSTAR":0.00029101901,"MEAN_MOTION_DOT":9.519e-5,"MEAN_MOTION_DDOT":0},{"OBJECT_NAME":"SKYSAT-C2","OBJECT_ID":"2016-058D","EPOCH":"2026-03-28T14:49:00.331680","MEAN_MOTION":15.40202736,"ECCENTRICITY":0.00031033,"INCLINATION":97.026,"RA_OF_ASC_NODE":112.8196,"ARG_OF_PERICENTER":21.9202,"MEAN_ANOMALY":338.2177,"EPHEMERIS_TYPE":0,"CLASSIFICATION_TYPE":"U","NORAD_CAT_ID":41773,"ELEMENT_SET_NO":999,"REV_AT_EPOCH":53264,"BSTAR":0.00037269352,"MEAN_MOTION_DOT":0.00014903,"MEAN_MOTION_DDOT":0},{"OBJECT_NAME":"SKYSAT-C3","OBJECT_ID":"2016-058E","EPOCH":"2026-03-28T14:50:30.128064","MEAN_MOTION":15.49169882,"ECCENTRICITY":0.00024052,"INCLINATION":96.9146,"RA_OF_ASC_NODE":121.695,"ARG_OF_PERICENTER":115.1944,"MEAN_ANOMALY":244.9558,"EPHEMERIS_TYPE":0,"CLASSIFICATION_TYPE":"U","NORAD_CAT_ID":41774,"ELEMENT_SET_NO":999,"REV_AT_EPOCH":53362,"BSTAR":0.00045895316,"MEAN_MOTION_DOT":0.0002494,"MEAN_MOTION_DDOT":0},{"OBJECT_NAME":"ALSAT-1B","OBJECT_ID":"2016-059C","EPOCH":"2026-03-28T15:12:54.489600","MEAN_MOTION":14.72207116,"ECCENTRICITY":0.00104628,"INCLINATION":97.7801,"RA_OF_ASC_NODE":99.8669,"ARG_OF_PERICENTER":120.2439,"MEAN_ANOMALY":239.9806,"EPHEMERIS_TYPE":0,"CLASSIFICATION_TYPE":"U","NORAD_CAT_ID":41785,"ELEMENT_SET_NO":999,"REV_AT_EPOCH":50872,"BSTAR":7.6923407e-5,"MEAN_MOTION_DOT":4.38e-6,"MEAN_MOTION_DDOT":0},{"OBJECT_NAME":"PATHFINDER 1","OBJECT_ID":"2016-059E","EPOCH":"2026-03-28T13:10:32.738592","MEAN_MOTION":14.67551051,"ECCENTRICITY":0.002995,"INCLINATION":97.8181,"RA_OF_ASC_NODE":90.4677,"ARG_OF_PERICENTER":102.7795,"MEAN_ANOMALY":257.676,"EPHEMERIS_TYPE":0,"CLASSIFICATION_TYPE":"U","NORAD_CAT_ID":41787,"ELEMENT_SET_NO":999,"REV_AT_EPOCH":50788,"BSTAR":0.00015694718,"MEAN_MOTION_DOT":8.5e-6,"MEAN_MOTION_DDOT":0},{"OBJECT_NAME":"SCATSAT 1","OBJECT_ID":"2016-059H","EPOCH":"2026-03-28T14:14:27.421152","MEAN_MOTION":14.7932491,"ECCENTRICITY":0.00556766,"INCLINATION":98.1267,"RA_OF_ASC_NODE":150.5136,"ARG_OF_PERICENTER":146.7942,"MEAN_ANOMALY":213.6783,"EPHEMERIS_TYPE":0,"CLASSIFICATION_TYPE":"U","NORAD_CAT_ID":41790,"ELEMENT_SET_NO":999,"REV_AT_EPOCH":8967,"BSTAR":0.00021639348,"MEAN_MOTION_DOT":1.597e-5,"MEAN_MOTION_DDOT":0}]
