YAOGAN-29               
1 41038U 15069A   26087.61907782  .00000099  00000+0  18890-4 0  9997
2 41038  98.0123 116.0975 0000509   0.4025 359.7188 14.83013570558680
KENT RIDGE 1            
1 41167U 15077B   26087.34057340  .00004918  00000+0  17343-3 0  9990
2 41167  14.9794 147.0022 0008501 178.7748 181.2596 15.22599929568753
GAOFEN-4                
1 41194U 15083A   26087.65168376 -.00000354  00000+0  00000+0 0  9992
2 41194   0.3738  82.8927 0006079  89.0270 354.4344  1.00270703 37722
JASON-3                 
1 41240U 16002A   26087.61429355 -.00000027  00000+0  13761-3 0  9998
2 41240  66.0408 295.2343 0007639 276.6935  83.3214 12.87627404476872
SENTINEL-3A             
1 41335U 16011A   26087.56717292  .00000113  00000+0  64601-4 0  9992
2 41335  98.6310 156.0871 0001190  93.6494 266.4823 14.26733220526564
ZIYUAN 3-02 (ZY 3-02)   
1 41556U 16033A   26087.61742407  .00007513  00000+0  33897-3 0  9996
2 41556  97.3874 164.9229 0012907 213.2802 146.7623 15.21214974545730
CARTOSAT-2C             
1 41599U 16040A   26087.64056961  .00008164  00000+0  38991-3 0  9990
2 41599  97.4571 148.6905 0010131  60.6912 299.5334 15.19253167541483
SKYSAT-C1               
1 41601U 16040C   26087.60936007  .00010761  00000+0  32007-3 0  9996
2 41601  96.9670 123.7365 0001564   9.8280 350.2994 15.34893933545500
LAPAN-A3                
1 41603U 16040E   26087.63450866  .00004243  00000+0  13728-3 0  9992
2 41603  97.1488  86.4642 0008825 311.9804  48.0686 15.32544511542477
GAOFEN-3                
1 41727U 16049A   26087.60564873  .00000113  00000+0  47346-4 0  9995
2 41727  98.4055  96.5987 0001677  75.4324 284.7052 14.42220813507034
SKYSAT-C4               
1 41771U 16058B   26087.55895046  .00019463  00000+0  39975-3 0  9993
2 41771  96.9266 112.8186 0002490 130.1273 230.0196 15.46033833533007
SKYSAT-C5               
1 41772U 16058C   26087.54525508  .00009519  00000+0  29102-3 0  9998
2 41772  97.0583 131.7900 0001362 197.1298 162.9900 15.34060277531387
SKYSAT-C2               
1 41773U 16058D   26087.61736495  .00014903  00000+0  37269-3 0  9992
2 41773  97.0260 112.8196 0003103  21.9202 338.2177 15.40202736532640
SKYSAT-C3               
1 41774U 16058E   26087.61840426  .00024940  00000+0  45895-3 0  9999
2 41774  96.9146 121.6950 0002405 115.1944 244.9558 15.49169882533629
ALSAT-1B                
1 41785U 16059C   26087.63396400  .00000438  00000+0  76923-4 0  9995
2 41785  97.7801  99.8669 0010462 120.2439 239.9806 14.72207116508720
PATHFINDER 1            
1 41787U 16059E   26087.54899003  .00000850  00000+0  15695-3 0  9990
2 41787  97.8181  90.4677 0029950 102.7795 257.6760 14.67551051507888
SCATSAT 1               
1 41790U 16059H   26087.59337293  .00001597  00000+0  21639-3 0  9991
2 41790  98.1267 150.5136 0055676 146.7942 213.6783 14.79324910 89679
